{"type": "FeatureCollection", "features": [ {"type": "Feature", "properties": {"norad_id": 28659, "name": "DIRECTV 8", "group": "intelsat", "lat": 0.03695961130712241, "lon": 26.384759924456343, "alt_km": 35794.473017092736, "timestamp": "2025-12-03T04:52:29.308937+00:00", "meta": {"OBJECT_NAME": "DIRECTV 8", "OBJECT_ID": "2005-019A", "EPOCH": "2025-12-02T16:38:34.986336", "MEAN_MOTION": 1.00271261, "ECCENTRICITY": 0.0003256, "INCLINATION": 0.0138, "RA_OF_ASC_NODE": 300.7015, "ARG_OF_PERICENTER": 318.9289, "MEAN_ANOMALY": 302.7729, "EPHEMERIS_TYPE": 0, "CLASSIFICATION_TYPE": "U", "NORAD_CAT_ID": 28659, "ELEMENT_SET_NO": 999, "REV_AT_EPOCH": 7510, "BSTAR": 0, "MEAN_MOTION_DOT": 2.1e-07, "MEAN_MOTION_DDOT": 0}, "tle": {"line1": "1 28659U 05019A   25336.69346049  .00000021  00000+0  00000+0 0  9996", "line2": "2 28659   0.0138 300.7015 0003256 318.9289 302.7729  1.00271261 75109"}}, "geometry": {"type": "Point", "coordinates": [26.384759924456343, 0.03695961130712241]}}, {"type": "Feature", "properties": {"norad_id": 28702, "name": "GALAXY 28 (G-28)", "group": "intelsat", "lat": -1.140341770386308, "lon": 56.73746846450558, "alt_km": 35796.18538254371, "timestamp": "2025-12-03T04:52:29.308950+00:00", "meta": {"OBJECT_NAME": "GALAXY 28 (G-28)", "OBJECT_ID": "2005-022A", "EPOCH": "2025-12-02T15:04:30.482112", "MEAN_MOTION": 1.00275862, "ECCENTRICITY": 0.0002732, "INCLINATION": 2.7928, "RA_OF_ASC_NODE": 81.3976, "ARG_OF_PERICENTER": 172.5506, "MEAN_ANOMALY": 315.2072, "EPHEMERIS_TYPE": 0, "CLASSIFICATION_TYPE": "U", "NORAD_CAT_ID": 28702, "ELEMENT_SET_NO": 999, "REV_AT_EPOCH": 5000, "BSTAR": 0, "MEAN_MOTION_DOT": -1.68e-06, "MEAN_MOTION_DDOT": 0}, "tle": {"line1": "1 28702U 05022A   25336.62813058 -.00000168  00000+0  00000+0 0  9994", "line2": "2 28702   2.7928  81.3976 0002732 172.5506 315.2072  1.00275862 50009"}}, "geometry": {"type": "Point", "coordinates": [56.73746846450558, -1.140341770386308]}}, {"type": "Feature", "properties": {"norad_id": 29236, "name": "GALAXY 16 (G-16)", "group": "intelsat", "lat": 0.016457237113088805, "lon": 46.39755939946191, "alt_km": 35797.35968865236, "timestamp": "2025-12-03T04:52:29.308962+00:00", "meta": {"OBJECT_NAME": "GALAXY 16 (G-16)", "OBJECT_ID": "2006-023A", "EPOCH": "2025-12-02T15:01:30.769248", "MEAN_MOTION": 1.00270217, "ECCENTRICITY": 0.000286, "INCLINATION": 0.0253, "RA_OF_ASC_NODE": 222.4549, "ARG_OF_PERICENTER": 30.7151, "MEAN_ANOMALY": 304.9296, "EPHEMERIS_TYPE": 0, "CLASSIFICATION_TYPE": "U", "NORAD_CAT_ID": 29236, "ELEMENT_SET_NO": 999, "REV_AT_EPOCH": 7100, "BSTAR": 0, "MEAN_MOTION_DOT": -1.06e-06, "MEAN_MOTION_DDOT": 0}, "tle": {"line1": "1 29236U 06023A   25336.62605057 -.00000106  00000+0  00000+0 0  9999", "line2": "2 29236   0.0253 222.4549 0002860  30.7151 304.9296  1.00270217 71006"}}, "geometry": {"type": "Point", "coordinates": [46.39755939946191, 0.016457237113088805]}}, {"type": "Feature", "properties": {"norad_id": 29494, "name": "DIRECTV 9S", "group": "intelsat", "lat": -1.1806222136398883, "lon": 44.22280667834615, "alt_km": 35798.59372124619, "timestamp": "2025-12-03T04:52:29.308979+00:00", "meta": {"OBJECT_NAME": "DIRECTV 9S", "OBJECT_ID": "2006-043A", "EPOCH": "2025-12-02T13:18:12.791808", "MEAN_MOTION": 1.0027065, "ECCENTRICITY": 0.00031569, "INCLINATION": 1.9116, "RA_OF_ASC_NODE": 83.3175, "ARG_OF_PERICENTER": 166.855, "MEAN_ANOMALY": 279.8371, "EPHEMERIS_TYPE": 0, "CLASSIFICATION_TYPE": "U", "NORAD_CAT_ID": 29494, "ELEMENT_SET_NO": 999, "REV_AT_EPOCH": 4941, "BSTAR": 0, "MEAN_MOTION_DOT": -9.3e-07, "MEAN_MOTION_DDOT": 0}, "tle": {"line1": "1 29494U 06043A   25336.55431472 -.00000093  00000+0  00000+0 0  9992", "line2": "2 29494   1.9116  83.3175 0003156 166.8550 279.8371  1.00270650 49417"}}, "geometry": {"type": "Point", "coordinates": [44.22280667834615, -1.1806222136398883]}}, {"type": "Feature", "properties": {"norad_id": 31307, "name": "GALAXY 17 (G-17)", "group": "intelsat", "lat": -0.9007122538454047, "lon": 60.41336299721583, "alt_km": 35812.382172886515, "timestamp": "2025-12-03T04:52:29.308991+00:00", "meta": {"OBJECT_NAME": "GALAXY 17 (G-17)", "OBJECT_ID": "2007-016B", "EPOCH": "2025-12-02T15:05:37.874112", "MEAN_MOTION": 1.00270499, "ECCENTRICITY": 0.0006087, "INCLINATION": 2.4723, "RA_OF_ASC_NODE": 82.402, "ARG_OF_PERICENTER": 155.8824, "MEAN_ANOMALY": 334.859, "EPHEMERIS_TYPE": 0, "CLASSIFICATION_TYPE": "U", "NORAD_CAT_ID": 31307, "ELEMENT_SET_NO": 999, "REV_AT_EPOCH": 6783, "BSTAR": 0, "MEAN_MOTION_DOT": -1.86e-06, "MEAN_MOTION_DDOT": 0}, "tle": {"line1": "1 31307U 07016B   25336.62891058 -.00000186  00000+0  00000+0 0  9990", "line2": "2 31307   2.4723  82.4020 0006087 155.8824 334.8590  1.00270499 67832"}}, "geometry": {"type": "Point", "coordinates": [60.41336299721583, -0.9007122538454047]}}, {"type": "Feature", "properties": {"norad_id": 31862, "name": "DIRECTV 10", "group": "intelsat", "lat": -0.0068734161628713, "lon": 42.59781589966343, "alt_km": 35787.507455108585, "timestamp": "2025-12-03T04:52:29.309003+00:00", "meta": {"OBJECT_NAME": "DIRECTV 10", "OBJECT_ID": "2007-032A", "EPOCH": "2025-12-02T15:00:23.376384", "MEAN_MOTION": 1.00271759, "ECCENTRICITY": 3.84e-05, "INCLINATION": 0.0177, "RA_OF_ASC_NODE": 140.4771, "ARG_OF_PERICENTER": 52.4818, "MEAN_ANOMALY": 1.0731, "EPHEMERIS_TYPE": 0, "CLASSIFICATION_TYPE": "U", "NORAD_CAT_ID": 31862, "ELEMENT_SET_NO": 999, "REV_AT_EPOCH": 4362, "BSTAR": 0, "MEAN_MOTION_DOT": -8.3e-07, "MEAN_MOTION_DDOT": 0}, "tle": {"line1": "1 31862U 07032A   25336.62527056 -.00000083  00000+0  00000+0 0  9994", "line2": "2 31862   0.0177 140.4771 0000384  52.4818   1.0731  1.00271759 43623"}}, "geometry": {"type": "Point", "coordinates": [42.59781589966343, -0.0068734161628713]}}, {"type": "Feature", "properties": {"norad_id": 32253, "name": "INTELSAT 11 (IS-11)", "group": "intelsat", "lat": -1.4054254581340544, "lon": 53.13688487250454, "alt_km": 36172.148452354646, "timestamp": "2025-12-03T04:52:29.309015+00:00", "meta": {"OBJECT_NAME": "INTELSAT 11 (IS-11)", "OBJECT_ID": "2007-044B", "EPOCH": "2025-12-02T13:21:34.968672", "MEAN_MOTION": 0.99047445, "ECCENTRICITY": 0.00092508, "INCLINATION": 3.0514, "RA_OF_ASC_NODE": 81.09, "ARG_OF_PERICENTER": 160.5254, "MEAN_ANOMALY": 300.9812, "EPHEMERIS_TYPE": 0, "CLASSIFICATION_TYPE": "U", "NORAD_CAT_ID": 32253, "ELEMENT_SET_NO": 999, "REV_AT_EPOCH": 6650, "BSTAR": 0, "MEAN_MOTION_DOT": -8e-08, "MEAN_MOTION_DDOT": 0}, "tle": {"line1": "1 32253U 07044B   25336.55665473 -.00000008  00000+0  00000+0 0  9997", "line2": "2 32253   3.0514  81.0900 0009250 160.5254 300.9812  0.99047445 66509"}}, "geometry": {"type": "Point", "coordinates": [53.13688487250454, -1.4054254581340544]}}, {"type": "Feature", "properties": {"norad_id": 32388, "name": "HORIZONS-2", "group": "intelsat", "lat": -0.3912199234684617, "lon": 71.62726080770129, "alt_km": 35806.417072847566, "timestamp": "2025-12-03T04:52:29.309027+00:00", "meta": {"OBJECT_NAME": "HORIZONS-2", "OBJECT_ID": "2007-063B", "EPOCH": "2025-12-02T10:28:21.662976", "MEAN_MOTION": 1.00272433, "ECCENTRICITY": 0.00049088, "INCLINATION": 2.0925, "RA_OF_ASC_NODE": 83.0734, "ARG_OF_PERICENTER": 179.8675, "MEAN_ANOMALY": 251.9029, "EPHEMERIS_TYPE": 0, "CLASSIFICATION_TYPE": "U", "NORAD_CAT_ID": 32388, "ELEMENT_SET_NO": 999, "REV_AT_EPOCH": 6584, "BSTAR": 0, "MEAN_MOTION_DOT": -2.33e-06, "MEAN_MOTION_DDOT": 0}, "tle": {"line1": "1 32388U 07063B   25336.43636184 -.00000233  00000+0  00000+0 0  9991", "line2": "2 32388   2.0925  83.0734 0004908 179.8675 251.9029  1.00272433 65846"}}, "geometry": {"type": "Point", "coordinates": [71.62726080770129, -0.3912199234684617]}}, {"type": "Feature", "properties": {"norad_id": 32729, "name": "DIRECTV 11", "group": "intelsat", "lat": 0.00592101579673027, "lon": 46.19984834985283, "alt_km": 35787.61257491518, "timestamp": "2025-12-03T04:52:29.309039+00:00", "meta": {"OBJECT_NAME": "DIRECTV 11", "OBJECT_ID": "2008-013A", "EPOCH": "2025-12-02T10:08:34.465632", "MEAN_MOTION": 1.0027113, "ECCENTRICITY": 4.09e-05, "INCLINATION": 0.0114, "RA_OF_ASC_NODE": 215.6397, "ARG_OF_PERICENTER": 330.8354, "MEAN_ANOMALY": 298.008, "EPHEMERIS_TYPE": 0, "CLASSIFICATION_TYPE": "U", "NORAD_CAT_ID": 32729, "ELEMENT_SET_NO": 999, "REV_AT_EPOCH": 4362, "BSTAR": 0, "MEAN_MOTION_DOT": -1.05e-06, "MEAN_MOTION_DDOT": 0}, "tle": {"line1": "1 32729U 08013A   25336.42262113 -.00000105  00000+0  00000+0 0  9990", "line2": "2 32729   0.0114 215.6397 0000409 330.8354 298.0080  1.00271130 43620"}}, "geometry": {"type": "Point", "coordinates": [46.19984834985283, 0.00592101579673027]}}, {"type": "Feature", "properties": {"norad_id": 32951, "name": "GALAXY 18 (G-18)", "group": "intelsat", "lat": 0.030888419001906125, "lon": 22.400686720216655, "alt_km": 35794.55018444771, "timestamp": "2025-12-03T04:52:29.309050+00:00", "meta": {"OBJECT_NAME": "GALAXY 18 (G-18)", "OBJECT_ID": "2008-024A", "EPOCH": "2025-12-02T16:37:27.594336", "MEAN_MOTION": 1.00272815, "ECCENTRICITY": 0.0003397, "INCLINATION": 0.0216, "RA_OF_ASC_NODE": 348.532, "ARG_OF_PERICENTER": 266.2767, "MEAN_ANOMALY": 303.3251, "EPHEMERIS_TYPE": 0, "CLASSIFICATION_TYPE": "U", "NORAD_CAT_ID": 32951, "ELEMENT_SET_NO": 999, "REV_AT_EPOCH": 4388, "BSTAR": 0, "MEAN_MOTION_DOT": 0, "MEAN_MOTION_DDOT": 0}, "tle": {"line1": "1 32951U 08024A   25336.69268049  .00000000  00000+0  00000+0 0  9995", "line2": "2 32951   0.0216 348.5320 0003397 266.2767 303.3251  1.00272815 43880"}}, "geometry": {"type": "Point", "coordinates": [22.400686720216655, 0.030888419001906125]}}]}